{"type": "FeatureCollection", "features": [ {"type": "Feature", "properties": {"norad_id": 33153, "name": "INTELSAT 25 (IS-25)", "group": "intelsat", "lat": -0.35958994248897036, "lon": -88.5087380283755, "alt_km": 35763.90290208679, "timestamp": "2025-12-10T14:53:36.790003+00:00", "meta": {"OBJECT_NAME": "INTELSAT 25 (IS-25)", "OBJECT_ID": "2008-034A", "EPOCH": "2025-12-09T20:16:17.405760", "MEAN_MOTION": 1.00270259, "ECCENTRICITY": 0.00053791, "INCLINATION": 2.2204, "RA_OF_ASC_NODE": 82.6784, "ARG_OF_PERICENTER": 184.9843, "MEAN_ANOMALY": 83.7399, "EPHEMERIS_TYPE": 0, "CLASSIFICATION_TYPE": "U", "NORAD_CAT_ID": 33153, "ELEMENT_SET_NO": 999, "REV_AT_EPOCH": 6379, "BSTAR": 0, "MEAN_MOTION_DOT": -2.21e-06, "MEAN_MOTION_DDOT": 0}, "tle": {"line1": "1 33153U 08034A   25343.84464590 -.00000221  00000+0  00000+0 0  9991", "line2": "2 33153   2.2204  82.6784 0005379 184.9843  83.7399  1.00270259 63793"}}, "geometry": {"type": "Point", "coordinates": [-88.5087380283755, -0.35958994248897036]}}, {"type": "Feature", "properties": {"norad_id": 33376, "name": "GALAXY 19 (G-19)", "group": "intelsat", "lat": -0.0268178811945795, "lon": -154.00217928524194, "alt_km": 35777.8416872481, "timestamp": "2025-12-10T14:53:36.790014+00:00", "meta": {"OBJECT_NAME": "GALAXY 19 (G-19)", "OBJECT_ID": "2008-045A", "EPOCH": "2025-12-10T04:23:38.620896", "MEAN_MOTION": 1.00278274, "ECCENTRICITY": 0.00030164, "INCLINATION": 0.0172, "RA_OF_ASC_NODE": 336.4091, "ARG_OF_PERICENTER": 289.353, "MEAN_ANOMALY": 142.3352, "EPHEMERIS_TYPE": 0, "CLASSIFICATION_TYPE": "U", "NORAD_CAT_ID": 33376, "ELEMENT_SET_NO": 999, "REV_AT_EPOCH": 6300, "BSTAR": 0, "MEAN_MOTION_DOT": -1.37e-06, "MEAN_MOTION_DDOT": 0}, "tle": {"line1": "1 33376U 08045A   25344.18308589 -.00000137  00000+0  00000+0 0  9999", "line2": "2 33376   0.0172 336.4091 0003016 289.3530 142.3352  1.00278274 63000"}}, "geometry": {"type": "Point", "coordinates": [-154.00217928524194, -0.0268178811945795]}}, {"type": "Feature", "properties": {"norad_id": 35493, "name": "FM-5", "group": "intelsat", "lat": -0.029427599628892926, "lon": -143.14431932935028, "alt_km": 35784.52730691011, "timestamp": "2025-12-10T14:53:36.790026+00:00", "meta": {"OBJECT_NAME": "FM-5", "OBJECT_ID": "2009-034A", "EPOCH": "2025-12-10T02:10:38.678880", "MEAN_MOTION": 1.00270729, "ECCENTRICITY": 6.086e-05, "INCLINATION": 0.0185, "RA_OF_ASC_NODE": 289.7385, "ARG_OF_PERICENTER": 244.8327, "MEAN_ANOMALY": 211.0208, "EPHEMERIS_TYPE": 0, "CLASSIFICATION_TYPE": "U", "NORAD_CAT_ID": 35493, "ELEMENT_SET_NO": 999, "REV_AT_EPOCH": 4474, "BSTAR": 0, "MEAN_MOTION_DOT": -1.97e-06, "MEAN_MOTION_DDOT": 0}, "tle": {"line1": "1 35493U 09034A   25344.09072545 -.00000197  00000+0  00000+0 0  9996", "line2": "2 35493   0.0185 289.7385 0000608 244.8327 211.0208  1.00270729 44747"}}, "geometry": {"type": "Point", "coordinates": [-143.14431932935028, -0.029427599628892926]}}, {"type": "Feature", "properties": {"norad_id": 36097, "name": "INTELSAT 14 (IS-14)", "group": "intelsat", "lat": -0.028261086172672912, "lon": -102.01028102917651, "alt_km": 35775.466911798925, "timestamp": "2025-12-10T14:53:36.790037+00:00", "meta": {"OBJECT_NAME": "INTELSAT 14 (IS-14)", "OBJECT_ID": "2009-064A", "EPOCH": "2025-12-09T20:12:25.276608", "MEAN_MOTION": 1.00270287, "ECCENTRICITY": 0.00026574, "INCLINATION": 0.0097, "RA_OF_ASC_NODE": 353.7968, "ARG_OF_PERICENTER": 272.7981, "MEAN_ANOMALY": 70.3417, "EPHEMERIS_TYPE": 0, "CLASSIFICATION_TYPE": "U", "NORAD_CAT_ID": 36097, "ELEMENT_SET_NO": 999, "REV_AT_EPOCH": 5870, "BSTAR": 0, "MEAN_MOTION_DOT": -2.71e-06, "MEAN_MOTION_DDOT": 0}, "tle": {"line1": "1 36097U 09064A   25343.84195922 -.00000271  00000+0  00000+0 0  9990", "line2": "2 36097   0.0097 353.7968 0002657 272.7981  70.3417  1.00270287 58709"}}, "geometry": {"type": "Point", "coordinates": [-102.01028102917651, -0.028261086172672912]}}, {"type": "Feature", "properties": {"norad_id": 36106, "name": "INTELSAT 15 (IS-15)", "group": "intelsat", "lat": 0.03687092863798402, "lon": 28.164239419775047, "alt_km": 35791.80759314762, "timestamp": "2025-12-10T14:53:36.790047+00:00", "meta": {"OBJECT_NAME": "INTELSAT 15 (IS-15)", "OBJECT_ID": "2009-067A", "EPOCH": "2025-12-10T00:35:38.776704", "MEAN_MOTION": 1.00270865, "ECCENTRICITY": 0.00024552, "INCLINATION": 0.027, "RA_OF_ASC_NODE": 287.2149, "ARG_OF_PERICENTER": 339.4396, "MEAN_ANOMALY": 266.412, "EPHEMERIS_TYPE": 0, "CLASSIFICATION_TYPE": "U", "NORAD_CAT_ID": 36106, "ELEMENT_SET_NO": 999, "REV_AT_EPOCH": 3933, "BSTAR": 0, "MEAN_MOTION_DOT": -1.82e-06, "MEAN_MOTION_DDOT": 0}, "tle": {"line1": "1 36106U 09067A   25344.02475436 -.00000182  00000+0  00000+0 0  9997", "line2": "2 36106   0.0270 287.2149 0002455 339.4396 266.4120  1.00270865 39331"}}, "geometry": {"type": "Point", "coordinates": [28.164239419775047, 0.03687092863798402]}}, {"type": "Feature", "properties": {"norad_id": 36131, "name": "DIRECTV 12", "group": "intelsat", "lat": 0.020181705975671798, "lon": -159.70416881841058, "alt_km": 35787.03273315994, "timestamp": "2025-12-10T14:53:36.790058+00:00", "meta": {"OBJECT_NAME": "DIRECTV 12", "OBJECT_ID": "2009-075A", "EPOCH": "2025-12-10T04:31:38.803584", "MEAN_MOTION": 1.00278488, "ECCENTRICITY": 8.306e-05, "INCLINATION": 0.0399, "RA_OF_ASC_NODE": 141.5223, "ARG_OF_PERICENTER": 202.9692, "MEAN_ANOMALY": 59.8853, "EPHEMERIS_TYPE": 0, "CLASSIFICATION_TYPE": "U", "NORAD_CAT_ID": 36131, "ELEMENT_SET_NO": 999, "REV_AT_EPOCH": 4465, "BSTAR": 0, "MEAN_MOTION_DOT": -1.01e-06, "MEAN_MOTION_DDOT": 0}, "tle": {"line1": "1 36131U 09075A   25344.18864356 -.00000101  00000+0  00000+0 0  9995", "line2": "2 36131   0.0399 141.5223 0000830 202.9692  59.8853  1.00278488 44651"}}, "geometry": {"type": "Point", "coordinates": [-159.70416881841058, 0.020181705975671798]}}, {"type": "Feature", "properties": {"norad_id": 36397, "name": "INTELSAT 16 (IS-16)", "group": "intelsat", "lat": -0.029177259823721213, "lon": -133.2287627399334, "alt_km": 35778.96204888145, "timestamp": "2025-12-10T14:53:36.790069+00:00", "meta": {"OBJECT_NAME": "INTELSAT 16 (IS-16)", "OBJECT_ID": "2010-006A", "EPOCH": "2025-12-10T04:15:38.659392", "MEAN_MOTION": 1.00270158, "ECCENTRICITY": 0.00022535, "INCLINATION": 0.013, "RA_OF_ASC_NODE": 313.914, "ARG_OF_PERICENTER": 309.8505, "MEAN_ANOMALY": 163.0994, "EPHEMERIS_TYPE": 0, "CLASSIFICATION_TYPE": "U", "NORAD_CAT_ID": 36397, "ELEMENT_SET_NO": 999, "REV_AT_EPOCH": 5775, "BSTAR": 0, "MEAN_MOTION_DOT": -2.41e-06, "MEAN_MOTION_DDOT": 0}, "tle": {"line1": "1 36397U 10006A   25344.17753078 -.00000241  00000+0  00000+0 0  9997", "line2": "2 36397   0.0130 313.9140 0002253 309.8505 163.0994  1.00270158 57757"}}, "geometry": {"type": "Point", "coordinates": [-133.2287627399334, -0.029177259823721213]}}, {"type": "Feature", "properties": {"norad_id": 37185, "name": "XM-5", "group": "intelsat", "lat": -0.06742257854976161, "lon": -172.19741463453897, "alt_km": 35781.68523894163, "timestamp": "2025-12-10T14:53:36.790080+00:00", "meta": {"OBJECT_NAME": "XM-5", "OBJECT_ID": "2010-053A", "EPOCH": "2025-12-10T05:54:22.478400", "MEAN_MOTION": 1.00269339, "ECCENTRICITY": 0.00015223, "INCLINATION": 0.0617, "RA_OF_ASC_NODE": 272.7352, "ARG_OF_PERICENTER": 237.7808, "MEAN_ANOMALY": 262.1039, "EPHEMERIS_TYPE": 0, "CLASSIFICATION_TYPE": "U", "NORAD_CAT_ID": 37185, "ELEMENT_SET_NO": 999, "REV_AT_EPOCH": 5558, "BSTAR": 0, "MEAN_MOTION_DOT": -1.9e-07, "MEAN_MOTION_DDOT": 0}, "tle": {"line1": "1 37185U 10053A   25344.24609350 -.00000019  00000+0  00000+0 0  9999", "line2": "2 37185   0.0617 272.7352 0001522 237.7808 262.1039  1.00269339 55582"}}, "geometry": {"type": "Point", "coordinates": [-172.19741463453897, -0.06742257854976161]}}, {"type": "Feature", "properties": {"norad_id": 37238, "name": "INTELSAT 17 (IS-17)", "group": "intelsat", "lat": 0.020201817025250125, "lon": 9.036855645262174, "alt_km": 35788.949611904565, "timestamp": "2025-12-10T14:53:36.790091+00:00", "meta": {"OBJECT_NAME": "INTELSAT 17 (IS-17)", "OBJECT_ID": "2010-065B", "EPOCH": "2025-12-10T00:45:38.640672", "MEAN_MOTION": 1.00272545, "ECCENTRICITY": 0.00024368, "INCLINATION": 0.0135, "RA_OF_ASC_NODE": 288.0536, "ARG_OF_PERICENTER": 333.432, "MEAN_ANOMALY": 254.9533, "EPHEMERIS_TYPE": 0, "CLASSIFICATION_TYPE": "U", "NORAD_CAT_ID": 37238, "ELEMENT_SET_NO": 999, "REV_AT_EPOCH": 5135, "BSTAR": 0, "MEAN_MOTION_DOT": 1e-08, "MEAN_MOTION_DDOT": 0}, "tle": {"line1": "1 37238U 10065B   25344.03169723  .00000001  00000+0  00000+0 0  9993", "line2": "2 37238   0.0135 288.0536 0002436 333.4320 254.9533  1.00272545 51350"}}, "geometry": {"type": "Point", "coordinates": [9.036855645262174, 0.020201817025250125]}}, {"type": "Feature", "properties": {"norad_id": 37392, "name": "INTELSAT 28 (IS-28)", "group": "intelsat", "lat": -0.16144481469245814, "lon": -88.69767043611083, "alt_km": 35769.42653824921, "timestamp": "2025-12-10T14:53:36.790102+00:00", "meta": {"OBJECT_NAME": "INTELSAT 28 (IS-28)", "OBJECT_ID": "2011-016A", "EPOCH": "2025-12-09T20:16:17.405760", "MEAN_MOTION": 1.00272229, "ECCENTRICITY": 0.00039615, "INCLINATION": 1.3173, "RA_OF_ASC_NODE": 85.0894, "ARG_OF_PERICENTER": 178.4571, "MEAN_ANOMALY": 87.656, "EPHEMERIS_TYPE": 0, "CLASSIFICATION_TYPE": "U", "NORAD_CAT_ID": 37392, "ELEMENT_SET_NO": 999, "REV_AT_EPOCH": 5138, "BSTAR": 0, "MEAN_MOTION_DOT": -2.22e-06, "MEAN_MOTION_DDOT": 0}, "tle": {"line1": "1 37392U 11016A   25343.84464590 -.00000222  00000+0  00000+0 0  9995", "line2": "2 37392   1.3173  85.0894 0003961 178.4571  87.6560  1.00272229 51381"}}, "geometry": {"type": "Point", "coordinates": [-88.69767043611083, -0.16144481469245814]}}]}